{"fetched_at":"2026-03-29T16:36:15Z","count":15609,"tles":[{"name":"STARLINK-34039","line1":"1 63946U 25098W   26087.80708432  .00007814  00000+0  66177-3 0  9996","line2":"2 63946  70.0019 226.3486 0002855 269.4529  90.6303 14.98341889 49419","category":"Starlink"}]}